[{"OBJECT_NAME":"STARLINK-5453","OBJECT_ID":"2022-175R","EPOCH":"2026-03-09T07:28:13.979424","MEAN_MOTION":15.08813529,"ECCENTRICITY":0.00011684,"INCLINATION":53.2184,"RA_OF_ASC_NODE":45.6945,"ARG_OF_PERICENTER":86.0946,"MEAN_ANOMALY":274.0179,"EPHEMERIS_TYPE":0,"CLASSIFICATION_TYPE":"U","NORAD_CAT_ID":54773,"ELEMENT_SET_NO":999,"REV_AT_EPOCH":17986,"BSTAR":3.1872172e-5,"MEAN_MOTION_DOT":2.19e-6,"MEAN_MOTION_DDOT":0},{"OBJECT_NAME":"ATLAS D R\/B","OBJECT_ID":"1965-078B","EPOCH":"2026-03-09T20:46:56.586144","MEAN_MOTION":13.36861601,"ECCENTRICITY":0.09711083,"INCLINATION":144.2243,"RA_OF_ASC_NODE":158.6484,"ARG_OF_PERICENTER":223.7615,"MEAN_ANOMALY":128.1873,"EPHEMERIS_TYPE":0,"CLASSIFICATION_TYPE":"U","NORAD_CAT_ID":1616,"ELEMENT_SET_NO":999,"REV_AT_EPOCH":73741,"BSTAR":0.00067418119,"MEAN_MOTION_DOT":7.934e-5,"MEAN_MOTION_DDOT":0}]
